$$SOE
2460154.500000000, A.D. 2023-Jul-29 00:00:00.0000, -4.552777029603609E+08, 1.993386919082269E+08, 1.640112753066608E+07,
2460161.500000000, A.D. 2023-Aug-05 00:00:00.0000, -4.589886774286763E+08, 1.905208270634673E+08, 1.795447272034463E+07,
2460168.500000000, A.D. 2023-Aug-12 00:00:00.0000, -4.625185165138757E+08, 1.816277337530407E+08, 1.950073175400721E+07,
2460175.500000000, A.D. 2023-Aug-19 00:00:00.0000, -4.658658303401141E+08, 1.726629210541894E+08, 2.103929438292042E+07,
2460182.500000000, A.D. 2023-Aug-26 00:00:00.0000, -4.690292926333430E+08, 1.636299228754735E+08, 2.256955301301280E+07,
2460189.500000000, A.D. 2023-Sep-02 00:00:00.0000, -4.720076411042306E+08, 1.545322970566199E+08, 2.409090286579815E+07,
2460196.500000000, A.D. 2023-Sep-09 00:00:00.0000, -4.747996778128369E+08, 1.453736243532944E+08, 2.560274212788779E+07,
2460203.500000000, A.D. 2023-Sep-16 00:00:00.0000, -4.774042693466300E+08, 1.361575072483680E+08, 2.710447206901501E+07,
2460210.500000000, A.D. 2023-Sep-23 00:00:00.0000, -4.798203463952900E+08, 1.268875688760006E+08, 2.859549711393479E+07,
2460217.500000000, A.D. 2023-Sep-30 00:00:00.0000, -4.820469030616701E+08, 1.175674532485544E+08, 3.007522499677709E+07,
2460224.500000000, A.D. 2023-Oct-07 00:00:00.0000, -4.840829982632714E+08, 1.082008262426979E+08, 3.154306716953308E+07,
2460231.500000000, A.D. 2023-Oct-14 00:00:00.0000, -4.859277581856210E+08, 9.879137403167182E+07, 3.299843909880257E+07,
2460238.500000000, A.D. 2023-Oct-21 00:00:00.0000, -4.875803765582741E+08, 8.934280056697729E+07, 3.444076028596918E+07,
2460245.500000000, A.D. 2023-Oct-28 00:00:00.0000, -4.890401141761352E+08, 7.985882636857451E+07, 3.586945432637542E+07,
2460252.500000000, A.D. 2023-Nov-04 00:00:00.0000, -4.903062989164060E+08, 7.034318785178289E+07, 3.728394905941879E+07,
2460259.500000000, A.D. 2023-Nov-11 00:00:00.0000, -4.913783260746190E+08, 6.079963659057347E+07, 3.868367674459325E+07,
2460266.500000000, A.D. 2023-Nov-18 00:00:00.0000, -4.922556588006250E+08, 5.123193845284760E+07, 4.006807423845150E+07,
2460273.500000000, A.D. 2023-Nov-25 00:00:00.0000, -4.929378285617180E+08, 4.164387262996411E+07, 4.143658316797974E+07,
2460280.500000000, A.D. 2023-Dec-02 00:00:00.0000, -4.934244356047530E+08, 3.203923054892781E+07, 4.278865009716345E+07,
2460287.500000000, A.D. 2023-Dec-09 00:00:00.0000, -4.937151493395138E+08, 2.242181460808131E+07, 4.412372667501634E+07,
2460294.500000000, A.D. 2023-Dec-16 00:00:00.0000, -4.938097083556372E+08, 1.279543674888242E+07, 4.544126973986337E+07,
2460301.500000000, A.D. 2023-Dec-23 00:00:00.0000, -4.937079197238274E+08, 3.163917551395005E+06, 4.674074140408071E+07,
2460308.500000000, A.D. 2023-Dec-30 00:00:00.0000, -4.934096589200783E+08, -6.468913097440450E+06, 4.802160932774203E+07,
2460315.500000000, A.D. 2024-Jan-06 00:00:00.0000, -4.929148721443645E+08, -1.609921612436381E+07, 4.928334715049785E+07,
2460322.500000000, A.D. 2024-Jan-13 00:00:00.0000, -4.922235778608421E+08, -2.572314598679020E+07, 5.052543464276758E+07,
2460329.500000000, A.D. 2024-Jan-20 00:00:00.0000, -4.913358663347379E+08, -3.533685290223717E+07, 5.174735771579134E+07,
2460336.500000000, A.D. 2024-Jan-27 00:00:00.0000, -4.902518991936129E+08, -4.493648393961906E+07, 5.294860852955738E+07,
2460343.500000000, A.D. 2024-Feb-03 00:00:00.0000, -4.889719094424011E+08, -5.451818392265864E+07, 5.412868566024184E+07,
2460350.500000000, A.D. 2024-Feb-10 00:00:00.0000, -4.874962016565506E+08, -6.407809643690667E+07, 5.528709427801396E+07,
2460357.500000000, A.D. 2024-Feb-17 00:00:00.0000, -4.858251522152919E+08, -7.361236493202950E+07, 5.642334632321791E+07,
2460364.500000000, A.D. 2024-Feb-24 00:00:00.0000, -4.839592095388317E+08, -8.311713390419367E+07, 5.753696067883033E+07,
2460371.500000000, A.D. 2024-Mar-02 00:00:00.0000, -4.818988942993991E+08, -9.258855019097118E+07, 5.862746333377825E+07,
2460378.500000000, A.D. 2024-Mar-09 00:00:00.0000, -4.796447994665027E+08, -1.020227644416940E+08, 5.969438751916495E+07,
2460385.500000000, A.D. 2024-Mar-16 00:00:00.0000, -4.771975897901530E+08, -1.114159325660508E+08, 6.073727379717024E+07,
2460392.500000000, A.D. 2024-Mar-23 00:00:00.0000, -4.745580008243784E+08, -1.207642160519040E+08, 6.175567020258620E+07,
2460399.500000000, A.D. 2024-Mar-30 00:00:00.0000, -4.717268397307775E+08, -1.300637811795149E+08, 6.274913264011516E+07,
2460406.500000000, A.D. 2024-Apr-06 00:00:00.0000, -4.687049876057104E+08, -1.393108005006255E+08, 6.371722523863398E+07,
2460413.500000000, A.D. 2024-Apr-13 00:00:00.0000, -4.654933997800395E+08, -1.485014557460383E+08, 6.465952040512665E+07,
2460420.500000000, A.D. 2024-Apr-20 00:00:00.0000, -4.620931050419747E+08, -1.576319394844535E+08, 6.557559888419260E+07,
2460427.500000000, A.D. 2024-Apr-27 00:00:00.0000, -4.585052052978346E+08, -1.666984560943597E+08, 6.646504991606514E+07,
2460434.500000000, A.D. 2024-May-04 00:00:00.0000, -4.547308755818144E+08, -1.756972227535621E+08, 6.732747142750114E+07,
2460441.500000000, A.D. 2024-May-11 00:00:00.0000, -4.507713641764507E+08, -1.846244705489813E+08, 6.816247022558060E+07,
2460448.500000000, A.D. 2024-May-18 00:00:00.0000, -4.466279927619126E+08, -1.934764456852306E+08, 6.896966218899962E+07,
2460455.500000000, A.D. 2024-May-25 00:00:00.0000, -4.423021565691852E+08, -2.022494107988104E+08, 6.974867245432165E+07,
2460462.500000000, A.D. 2024-Jun-01 00:00:00.0000, -4.377953244768121E+08, -2.109396464349402E+08, 7.049913558727424E+07,
2460469.500000000, A.D. 2024-Jun-08 00:00:00.0000, -4.331090388041671E+08, -2.195434527095202E+08, 7.122069571485375E+07,
2460476.500000000, A.D. 2024-Jun-15 00:00:00.0000, -4.282449144008299E+08, -2.280571506105884E+08, 7.191300662631772E+07,
2460483.500000000, A.D. 2024-Jun-22 00:00:00.0000, -4.232046380359263E+08, -2.364770817635735E+08, 7.257573203135805E+07,
2460490.500000000, A.D. 2024-Jun-29 00:00:00.0000, -4.179899702076287E+08, -2.447996084811990E+08, 7.320854602126102E+07,
2460497.500000000, A.D. 2024-Jul-06 00:00:00.0000, -4.126027467275195E+08, -2.530211165698661E+08, 7.381113328877324E+07,
2460504.500000000, A.D. 2024-Jul-13 00:00:00.0000, -4.070448781306325E+08, -2.611380180682818E+08, 7.438318915902142E+07,
2460511.500000000, A.D. 2024-Jul-20 00:00:00.0000, -4.013183488956342E+08, -2.691467527686806E+08, 7.492441970744562E+07,
2460518.500000000, A.D. 2024-Jul-27 00:00:00.0000, -3.954252171293216E+08, -2.770437894796652E+08, 7.543454194617814E+07,
2460525.500000000, A.D. 2024-Aug-03 00:00:00.0000, -3.893676144412243E+08, -2.848256274059204E+08, 7.591328402293473E+07,
2460532.500000000, A.D. 2024-Aug-10 00:00:00.0000, -3.831477458420323E+08, -2.924887976495437E+08, 7.636038541675690E+07,
2460539.500000000, A.D. 2024-Aug-17 00:00:00.0000, -3.767678896183088E+08, -3.000298648109265E+08, 7.677559712797281E+07,
2460546.500000000, A.D. 2024-Aug-24 00:00:00.0000, -3.702303971552403E+08, -3.074454287103748E+08, 7.715868185778880E+07,
2460553.500000000, A.D. 2024-Aug-31 00:00:00.0000, -3.635376925909135E+08, -3.147321262903230E+08, 7.750941416143623E+07,
2460560.500000000, A.D. 2024-Sep-07 00:00:00.0000, -3.566922719350796E+08, -3.218866335698239E+08, 7.782758055097494E+07,
2460567.500000000, A.D. 2024-Sep-14 00:00:00.0000, -3.496967015648491E+08, -3.289056666535742E+08, 7.811297962040928E+07,
2460574.500000000, A.D. 2024-Sep-21 00:00:00.0000, -3.425536181232197E+08, -3.357859813817543E+08, 7.836542241193891E+07,
2460581.500000000, A.D. 2024-Sep-28 00:00:00.0000, -3.352657303055394E+08, -3.425243748488637E+08, 7.858473280368286E+07,
2460588.500000000, A.D. 2024-Oct-05 00:00:00.0000, -3.278358188638641E+08, -3.491176887915015E+08, 7.877074758258393E+07,
2460595.500000000, A.D. 2024-Oct-12 00:00:00.0000, -3.202667351905451E+08, -3.555628118653644E+08, 7.892331647953393E+07,
2460602.500000000, A.D. 2024-Oct-19 00:00:00.0000, -3.125614002319988E+08, -3.618566810810416E+08, 7.904230230525404E+07,
2460609.500000000, A.D. 2024-Oct-26 00:00:00.0000, -3.047228037641504E+08, -3.679962831983078E+08, 7.912758112413450E+07,
2460616.500000000, A.D. 2024-Nov-02 00:00:00.0000, -2.967540037708510E+08, -3.739786562258630E+08, 7.917904242994621E+07,
2460623.500000000, A.D. 2024-Nov-09 00:00:00.0000, -2.886581258273449E+08, -3.798008910047002E+08, 7.919658931600623E+07,
2460630.500000000, A.D. 2024-Nov-16 00:00:00.0000, -2.804383624617272E+08, -3.854601328736948E+08, 7.918013863730043E+07,
2460637.500000000, A.D. 2024-Nov-23 00:00:00.0000, -2.720979724463495E+08, -3.909535834659929E+08, 7.912962115604225E+07,
2460644.500000000, A.D. 2024-Nov-30 00:00:00.0000, -2.636402798097278E+08, -3.962785026774272E+08, 7.904498164791615E+07,
2460651.500000000, A.D. 2024-Dec-07 00:00:00.0000, -2.550686721483919E+08, -4.014322103848426E+08, 7.892617896473595E+07,
2460658.500000000, A.D. 2024-Dec-14 00:00:00.0000, -2.463865989260995E+08, -4.064120866885731E+08, 7.877318621646135E+07,
2460665.500000000, A.D. 2024-Dec-21 00:00:00.0000, -2.375975720773410E+08, -4.112155719178859E+08, 7.858599118344912E+07,
2460672.500000000, A.D. 2024-Dec-28 00:00:00.0000, -2.287051669410794E+08, -4.158401693657019E+08, 7.836459653532006E+07,
2460679.500000000, A.D. 2025-Jan-04 00:00:00.0000, -2.197130209268873E+08, -4.202834483760464E+08, 7.810901981263721E+07,
2460686.500000000, A.D. 2025-Jan-11 00:00:00.0000, -2.106248317344316E+08, -4.245430461231160E+08, 7.781929347427674E+07,
2460693.500000000, A.D. 2025-Jan-18 00:00:00.0000, -2.014443560424765E+08, -4.286166689987041E+08, 7.749546501943517E+07,
2460700.500000000, A.D. 2025-Jan-25 00:00:00.0000, -1.921754084227858E+08, -4.325020940803794E+08, 7.713759712293695E+07,
2460707.500000000, A.D. 2025-Feb-01 00:00:00.0000, -1.828218602881307E+08, -4.361971707086934E+08, 7.674576776377809E+07,
2460714.500000000, A.D. 2025-Feb-08 00:00:00.0000, -1.733876388148465E+08, -4.396998221523025E+08, 7.632007034305705E+07,
2460721.500000000, A.D. 2025-Feb-15 00:00:00.0000, -1.638767258103565E+08, -4.430080473797514E+08, 7.586061378703806E+07,
$$EOE